GLOBALSTAR M063         
1 26081U 00008A   26062.72447803 -.00000058  00000+0  35961-3 0  9996
2 26081  51.9944 148.0363 0005140  95.7323  70.8311 11.86181353188379
GLOBALSTAR M062         
1 26082U 00008B   26062.37192576 -.00000006  00000+0  65940-3 0  9995
2 26082  51.9857  53.5840 0007215 307.9035 200.1063 12.43480706528868
GLOBALSTAR M060         
1 26083U 00008C   26062.94184536 -.00000098  00000+0 -68668-4 0  9999
2 26083  52.0035  48.6679 0003037 294.4044 100.1306 12.17676019184011
GLOBALSTAR M064         
1 26084U 00008D   26062.92614975 -.00000093  00000+0 -14502-3 0  9995
2 26084  52.0006 243.2737 0001616 158.8861 201.2038 11.88542353197984
GLOBALSTAR M065         
1 31571U 07020A   26062.45139790 -.00000112  00000+0 -45069-4 0  9993
2 31571  51.9891 157.1378 0010365 159.7783 281.3160 12.62021008866147
GLOBALSTAR M069         
1 31573U 07020C   26062.64845223 -.00000110  00000+0 -15703-3 0  9990
2 31573  52.0023 190.8413 0000941 285.7479 176.8826 12.23468811865884
GLOBALSTAR M072         
1 31574U 07020D   26062.30021045 -.00000080  00000+0  52441-4 0  9998
2 31574  51.9958  22.1444 0001436  96.6003  51.6648 11.91655950862350
GLOBALSTAR M071         
1 31576U 07020F   26062.82390118 -.00000153  00000+0 -60827-3 0  9995
2 31576  52.0042 223.2819 0000249 145.6897 359.3091 12.18266583526587
GLOBALSTAR M067         
1 32263U 07048A   26062.02430050 -.00000104  00000+0 -50708-4 0  9995
2 32263  51.9765 358.5422 0001072 147.6582 294.6513 12.40685063841618
GLOBALSTAR M070         
1 32264U 07048B   26062.47441994 -.00000078  00000+0  14275-3 0  9991
2 32264  51.9757  58.5972 0000412  60.9169 108.0741 12.62331254846410
GLOBALSTAR M066         
1 32265U 07048C   26062.96126167 -.00000100  00000+0 -43266-4 0  9998
2 32265  51.9627 359.9864 0004476 175.9692 270.5942 12.30385882847271
GLOBALSTAR M068         
1 32266U 07048D   26062.93956086 -.00000073  00000+0  17387-3 0  9999
2 32266  51.9865 230.4318 0001141  40.8848 125.1844 12.62842062850376
GLOBALSTAR M079         
1 37188U 10054A   26062.44806741 -.00000095  00000+0  47861-4 0  9991
2 37188  52.0037  70.5538 0000601 114.0427  50.2878 12.62263828709196
GLOBALSTAR M074         
1 37189U 10054B   26062.47477490 -.00000095  00000+0  50543-4 0  9991
2 37189  52.0015  69.7553 0000287 128.3966  36.6176 12.62266343709808
GLOBALSTAR M076         
1 37190U 10054C   26062.42225577 -.00000096  00000+0  41123-4 0  9990
2 37190  52.0033  70.1093 0000508 138.3568  27.9046 12.62270405709511
GLOBALSTAR M077         
1 37191U 10054D   26062.24373961 -.00000080  00000+0 -36574-4 0  9990
2 37191  51.9959  88.3137 0000641 149.7129 289.7295 11.68176369708763
