[{"OBJECT_NAME":"GLOBALSTAR M063","OBJECT_ID":"2000-008A","EPOCH":"2026-03-03T17:23:14.901792","MEAN_MOTION":11.86181353,"ECCENTRICITY":0.00051406,"INCLINATION":51.9944,"RA_OF_ASC_NODE":148.0363,"ARG_OF_PERICENTER":95.7323,"MEAN_ANOMALY":70.8311,"EPHEMERIS_TYPE":0,"CLASSIFICATION_TYPE":"U","NORAD_CAT_ID":26081,"ELEMENT_SET_NO":999,"REV_AT_EPOCH":18837,"BSTAR":0.0003596141,"MEAN_MOTION_DOT":-5.8e-7,"MEAN_MOTION_DDOT":0},{"OBJECT_NAME":"GLOBALSTAR M062","OBJECT_ID":"2000-008B","EPOCH":"2026-03-03T08:55:34.385664","MEAN_MOTION":12.43480706,"ECCENTRICITY":0.0007215,"INCLINATION":51.9857,"RA_OF_ASC_NODE":53.584,"ARG_OF_PERICENTER":307.9035,"MEAN_ANOMALY":200.1063,"EPHEMERIS_TYPE":0,"CLASSIFICATION_TYPE":"U","NORAD_CAT_ID":26082,"ELEMENT_SET_NO":999,"REV_AT_EPOCH":52886,"BSTAR":0.00065940021,"MEAN_MOTION_DOT":-6.0e-8,"MEAN_MOTION_DDOT":0},{"OBJECT_NAME":"GLOBALSTAR M060","OBJECT_ID":"2000-008C","EPOCH":"2026-03-03T22:36:15.439104","MEAN_MOTION":12.17676019,"ECCENTRICITY":0.00030378,"INCLINATION":52.0035,"RA_OF_ASC_NODE":48.6679,"ARG_OF_PERICENTER":294.4044,"MEAN_ANOMALY":100.1306,"EPHEMERIS_TYPE":0,"CLASSIFICATION_TYPE":"U","NORAD_CAT_ID":26083,"ELEMENT_SET_NO":999,"REV_AT_EPOCH":18401,"BSTAR":-6.8667579e-5,"MEAN_MOTION_DOT":-9.8e-7,"MEAN_MOTION_DDOT":0},{"OBJECT_NAME":"GLOBALSTAR M064","OBJECT_ID":"2000-008D","EPOCH":"2026-03-03T22:13:39.338400","MEAN_MOTION":11.88542353,"ECCENTRICITY":0.00016169,"INCLINATION":52.0006,"RA_OF_ASC_NODE":243.2737,"ARG_OF_PERICENTER":158.8861,"MEAN_ANOMALY":201.2038,"EPHEMERIS_TYPE":0,"CLASSIFICATION_TYPE":"U","NORAD_CAT_ID":26084,"ELEMENT_SET_NO":999,"REV_AT_EPOCH":19798,"BSTAR":-0.00014501572,"MEAN_MOTION_DOT":-9.3e-7,"MEAN_MOTION_DDOT":0},{"OBJECT_NAME":"GLOBALSTAR M065","OBJECT_ID":"2007-020A","EPOCH":"2026-03-03T10:50:00.778560","MEAN_MOTION":12.62021008,"ECCENTRICITY":0.00103659,"INCLINATION":51.9891,"RA_OF_ASC_NODE":157.1378,"ARG_OF_PERICENTER":159.7783,"MEAN_ANOMALY":281.316,"EPHEMERIS_TYPE":0,"CLASSIFICATION_TYPE":"U","NORAD_CAT_ID":31571,"ELEMENT_SET_NO":999,"REV_AT_EPOCH":86614,"BSTAR":-4.506888e-5,"MEAN_MOTION_DOT":-1.12e-6,"MEAN_MOTION_DDOT":0},{"OBJECT_NAME":"GLOBALSTAR M069","OBJECT_ID":"2007-020C","EPOCH":"2026-03-03T15:33:46.272672","MEAN_MOTION":12.23468811,"ECCENTRICITY":9.41e-5,"INCLINATION":52.0023,"RA_OF_ASC_NODE":190.8413,"ARG_OF_PERICENTER":285.7479,"MEAN_ANOMALY":176.8826,"EPHEMERIS_TYPE":0,"CLASSIFICATION_TYPE":"U","NORAD_CAT_ID":31573,"ELEMENT_SET_NO":999,"REV_AT_EPOCH":86588,"BSTAR":-0.00015703,"MEAN_MOTION_DOT":-1.1e-6,"MEAN_MOTION_DDOT":0},{"OBJECT_NAME":"GLOBALSTAR M072","OBJECT_ID":"2007-020D","EPOCH":"2026-03-03T07:12:18.182880","MEAN_MOTION":11.9165595,"ECCENTRICITY":0.00014364,"INCLINATION":51.9958,"RA_OF_ASC_NODE":22.1444,"ARG_OF_PERICENTER":96.6003,"MEAN_ANOMALY":51.6648,"EPHEMERIS_TYPE":0,"CLASSIFICATION_TYPE":"U","NORAD_CAT_ID":31574,"ELEMENT_SET_NO":999,"REV_AT_EPOCH":86235,"BSTAR":5.244106e-5,"MEAN_MOTION_DOT":-8.0e-7,"MEAN_MOTION_DDOT":0},{"OBJECT_NAME":"GLOBALSTAR M071","OBJECT_ID":"2007-020F","EPOCH":"2026-03-03T19:46:25.061952","MEAN_MOTION":12.18266583,"ECCENTRICITY":2.496e-5,"INCLINATION":52.0042,"RA_OF_ASC_NODE":223.2819,"ARG_OF_PERICENTER":145.6897,"MEAN_ANOMALY":359.3091,"EPHEMERIS_TYPE":0,"CLASSIFICATION_TYPE":"U","NORAD_CAT_ID":31576,"ELEMENT_SET_NO":999,"REV_AT_EPOCH":52658,"BSTAR":-0.0006082654,"MEAN_MOTION_DOT":-1.53e-6,"MEAN_MOTION_DDOT":0},{"OBJECT_NAME":"GLOBALSTAR M067","OBJECT_ID":"2007-048A","EPOCH":"2026-03-03T00:34:59.563200","MEAN_MOTION":12.40685063,"ECCENTRICITY":0.0001072,"INCLINATION":51.9765,"RA_OF_ASC_NODE":358.5422,"ARG_OF_PERICENTER":147.6582,"MEAN_ANOMALY":294.6513,"EPHEMERIS_TYPE":0,"CLASSIFICATION_TYPE":"U","NORAD_CAT_ID":32263,"ELEMENT_SET_NO":999,"REV_AT_EPOCH":84161,"BSTAR":-5.0708166e-5,"MEAN_MOTION_DOT":-1.04e-6,"MEAN_MOTION_DDOT":0},{"OBJECT_NAME":"GLOBALSTAR M070","OBJECT_ID":"2007-048B","EPOCH":"2026-03-03T11:23:09.882816","MEAN_MOTION":12.62331254,"ECCENTRICITY":4.129e-5,"INCLINATION":51.9757,"RA_OF_ASC_NODE":58.5972,"ARG_OF_PERICENTER":60.9169,"MEAN_ANOMALY":108.0741,"EPHEMERIS_TYPE":0,"CLASSIFICATION_TYPE":"U","NORAD_CAT_ID":32264,"ELEMENT_SET_NO":999,"REV_AT_EPOCH":84641,"BSTAR":0.00014274815,"MEAN_MOTION_DOT":-7.8e-7,"MEAN_MOTION_DDOT":0},{"OBJECT_NAME":"GLOBALSTAR M066","OBJECT_ID":"2007-048C","EPOCH":"2026-03-03T23:04:13.008288","MEAN_MOTION":12.30385882,"ECCENTRICITY":0.00044764,"INCLINATION":51.9627,"RA_OF_ASC_NODE":359.9864,"ARG_OF_PERICENTER":175.9692,"MEAN_ANOMALY":270.5942,"EPHEMERIS_TYPE":0,"CLASSIFICATION_TYPE":"U","NORAD_CAT_ID":32265,"ELEMENT_SET_NO":999,"REV_AT_EPOCH":84727,"BSTAR":-4.3265518e-5,"MEAN_MOTION_DOT":-1.0e-6,"MEAN_MOTION_DDOT":0},{"OBJECT_NAME":"GLOBALSTAR M068","OBJECT_ID":"2007-048D","EPOCH":"2026-03-03T22:32:58.058304","MEAN_MOTION":12.62842062,"ECCENTRICITY":0.00011414,"INCLINATION":51.9865,"RA_OF_ASC_NODE":230.4318,"ARG_OF_PERICENTER":40.8848,"MEAN_ANOMALY":125.1844,"EPHEMERIS_TYPE":0,"CLASSIFICATION_TYPE":"U","NORAD_CAT_ID":32266,"ELEMENT_SET_NO":999,"REV_AT_EPOCH":85037,"BSTAR":0.00017386827,"MEAN_MOTION_DOT":-7.3e-7,"MEAN_MOTION_DDOT":0},{"OBJECT_NAME":"GLOBALSTAR M079","OBJECT_ID":"2010-054A","EPOCH":"2026-03-03T10:45:13.024224","MEAN_MOTION":12.62263828,"ECCENTRICITY":6.013e-5,"INCLINATION":52.0037,"RA_OF_ASC_NODE":70.5538,"ARG_OF_PERICENTER":114.0427,"MEAN_ANOMALY":50.2878,"EPHEMERIS_TYPE":0,"CLASSIFICATION_TYPE":"U","NORAD_CAT_ID":37188,"ELEMENT_SET_NO":999,"REV_AT_EPOCH":70919,"BSTAR":4.7860604e-5,"MEAN_MOTION_DOT":-9.5e-7,"MEAN_MOTION_DDOT":0},{"OBJECT_NAME":"GLOBALSTAR M074","OBJECT_ID":"2010-054B","EPOCH":"2026-03-03T11:23:40.551360","MEAN_MOTION":12.62266343,"ECCENTRICITY":2.874e-5,"INCLINATION":52.0015,"RA_OF_ASC_NODE":69.7553,"ARG_OF_PERICENTER":128.3966,"MEAN_ANOMALY":36.6176,"EPHEMERIS_TYPE":0,"CLASSIFICATION_TYPE":"U","NORAD_CAT_ID":37189,"ELEMENT_SET_NO":999,"REV_AT_EPOCH":70980,"BSTAR":5.0543166e-5,"MEAN_MOTION_DOT":-9.5e-7,"MEAN_MOTION_DDOT":0},{"OBJECT_NAME":"GLOBALSTAR M076","OBJECT_ID":"2010-054C","EPOCH":"2026-03-03T10:08:02.898528","MEAN_MOTION":12.62270405,"ECCENTRICITY":5.08e-5,"INCLINATION":52.0033,"RA_OF_ASC_NODE":70.1093,"ARG_OF_PERICENTER":138.3568,"MEAN_ANOMALY":27.9046,"EPHEMERIS_TYPE":0,"CLASSIFICATION_TYPE":"U","NORAD_CAT_ID":37190,"ELEMENT_SET_NO":999,"REV_AT_EPOCH":70951,"BSTAR":4.1123117e-5,"MEAN_MOTION_DOT":-9.6e-7,"MEAN_MOTION_DDOT":0},{"OBJECT_NAME":"GLOBALSTAR M077","OBJECT_ID":"2010-054D","EPOCH":"2026-03-03T05:50:59.102304","MEAN_MOTION":11.68176369,"ECCENTRICITY":6.413e-5,"INCLINATION":51.9959,"RA_OF_ASC_NODE":88.3137,"ARG_OF_PERICENTER":149.7129,"MEAN_ANOMALY":289.7295,"EPHEMERIS_TYPE":0,"CLASSIFICATION_TYPE":"U","NORAD_CAT_ID":37191,"ELEMENT_SET_NO":999,"REV_AT_EPOCH":70876,"BSTAR":-3.6573732e-5,"MEAN_MOTION_DOT":-8.0e-7,"MEAN_MOTION_DDOT":0}]
